IRIDIUM 116             
1 43072U 17083C   24191.69244419  .00000017  00000+0 -96445-6 0  9993
2 43072  86.3955 257.6549 0002338  92.1260 268.0203 14.34217875342763
IRIDIUM 130             
1 43073U 17083D   24191.73050073  .00000053  00000+0  12022-4 0  9996
2 43073  86.3962 257.8456 0002362  93.7082 266.4384 14.34217651342716
IRIDIUM 151             
1 43074U 17083E   24191.70512899 -.00000010  00000+0 -10789-4 0  9996
2 43074  86.3956 257.6911 0001953  92.7775 267.3644 14.34217615342738
IRIDIUM 134             
1 43075U 17083F   24191.74318518  .00000030  00000+0  37594-5 0  9997
2 43075  86.3958 257.6740 0002487  92.8574 267.2906 14.34217972342705
IRIDIUM 137             
1 43076U 17083G   24191.61633191  .00000233  00000+0  75998-4 0  9995
2 43076  86.3959 257.8053 0002114  82.6025 277.5411 14.34218980342751
IRIDIUM 141             
1 43077U 17083H   24191.67975997  .00000312  00000+0  10450-3 0  9994
2 43077  86.3954 257.6497 0002213  98.3699 261.7748 14.34219502342768
IRIDIUM 153             
1 43078U 17083J   24191.63193682  .00000162  00000+0  50640-4 0  9993
2 43078  86.3967 226.1382 0002128 106.6682 253.4747 14.34218101343860
IRIDIUM 131             
1 43079U 17083K   24191.73683628  .00000315  00000+0  10529-3 0  9990
2 43079  86.3960 257.7646 0002096  91.8976 268.2460 14.34217580342700
